0 FENGYUN 1C DEB
1 38810U 99025EVA 13281.38274170  .00001375  00000-0  10023-2 0   403
2 38810 099.3705 336.5247 0140927 339.5574 020.0067 13.93332873150625
0 FENGYUN 1C DEB
1 38810U 99025EVA 13283.39336084  .00001395  00000-0  10159-2 0   412
2 38810 099.3702 338.5623 0140995 334.1155 025.3066 13.93339052150907
0 FENGYUN 1C DEB
1 38810U 99025EVA 13287.34276703  .00001501  00000-0  10917-2 0   424
2 38810 099.3709 342.5575 0140135 323.2865 035.9299 13.93353611151451
0 FENGYUN 1C DEB
1 38810U 99025EVA 13290.35864624  .00001557  00000-0  11326-2 0   431
2 38810 099.3733 345.6182 0139268 315.1724 043.8787 13.93364831151877
0 FENGYUN 1C DEB
1 38810U 99025EVA 13293.37449915  .00001613  00000-0  11719-2 0   448
2 38810 099.3776 348.6877 0138976 306.9763 051.9097 13.93376557152293
